NORAD_CAT_ID,OBJECT_NAME,OBJECT_TYPE,EPOCH,MEAN_MOTION,ECCENTRICITY,INCLINATION,RA_OF_ASC_NODE,ARG_OF_PERICENTER,MEAN_ANOMALY,BSTAR,MEAN_MOTION_DOT,MEAN_MOTION_DDOT,TLE_LINE0,TLE_LINE1,TLE_LINE2,SEMIMAJOR_AXIS,PERIOD,APOGEE,PERIGEE,DECAYED
53033.0,STARLINK-4167,PAYLOAD,2023-11-14 03:26:05,15.08839798,0.0001734,53.2173,274.4183,80.2043,279.9145,0.000102,1.336e-05,0.0,0 STARLINK-4167,1 53033U 22076AZ  23318.14311895  .00001336  00000-0  10200-3 0  9999,2 53033  53.2173 274.4183 0001734  80.2043 279.9145 15.08839798 75791,6917.881,95.438,540.946,538.546,0.0
53033.0,STARLINK-4167,PAYLOAD,2023-11-14 14:33:47,15.08845122,0.0001806,53.2181,272.3381,78.8367,281.2828,0.00012945,1.773e-05,0.0,0 STARLINK-4167,1 53033U 22076AZ  23318.60679623  .00001773  00000-0  12945-3 0  9999,2 53033  53.2181 272.3381 0001806  78.8367 281.2828 15.08845122 75397,6917.865,95.437,540.979,538.48,0.0
53033.0,STARLINK-4167,PAYLOAD,2023-11-14 20:55:19,15.08846155,0.0001914,53.2183,271.1499,76.2127,283.9078,5.1605e-05,5.33e-06,0.0,0 STARLINK-4167,1 53033U 22076AZ  23318.87175649  .00000533  00000-0  51605-4 0  9997,2 53033  53.2183 271.1499 0001914  76.2127 283.9078 15.08846155 75430,6917.862,95.437,541.051,538.402,0.0
53033.0,STARLINK-4167,PAYLOAD,2023-11-15 14:24:34,15.08834997,0.0001864,53.2173,267.8785,78.6888,281.4313,0.00025633,3.793e-05,0.0,0 STARLINK-4167,1 53033U 22076AZ  23319.60040231  .00003793  00000-0  25633-3 0  9999,2 53033  53.2173 267.8785 0001864  78.6888 281.4313 15.08834997 75541,6917.896,95.438,541.05,538.471,0.0
53033.0,STARLINK-4167,PAYLOAD,2023-11-16 06:18:25,15.08845142,0.0001507,53.2168,264.9018,93.7669,266.3495,6.0159e-05,6.7e-06,0.0,0 STARLINK-4167,1 53033U 22076AZ  23320.26279369  .00000670  00000-0  60159-4 0  9993,2 53033  53.2168 264.9018 0001507  93.7669 266.3495 15.08845142 76112,6917.865,95.437,540.772,538.687,0.0
53033.0,STARLINK-4167,PAYLOAD,2023-11-17 06:09:12,15.08846585,0.0001589,53.2178,260.44,94.1818,265.9356,2.8961e-05,1.73e-06,0.0,0 STARLINK-4167,1 53033U 22076AZ  23321.25639265  .00000173  00000-0  28961-4 0  9991,2 53033  53.2178 260.4400 0001589  94.1818 265.9356 15.08846585 75796,6917.86,95.437,540.825,538.626,0.0
53033.0,STARLINK-4167,PAYLOAD,2023-11-18 02:49:14,15.08823682,0.0001531,53.218,256.5727,93.5129,266.6038,0.00016051,2.266e-05,0.0,0 STARLINK-4167,1 53033U 22076AZ  23322.11752422  .00002266  00000-0  16051-3 0  9999,2 53033  53.2180 256.5727 0001531  93.5129 266.6038 15.08823682 76397,6917.93,95.439,540.854,538.736,0.0
53033.0,STARLINK-4167,PAYLOAD,2023-11-18 12:21:32,15.08837338,0.0001397,53.218,254.7882,91.4574,268.6578,4.4872e-05,4.26e-06,0.0,0 STARLINK-4167,1 53033U 22076AZ  23322.51496023  .00000426  00000-0  44872-4 0  9994,2 53033  53.2180 254.7882 0001397  91.4574 268.6578 15.08837338 76451,6917.889,95.438,540.72,538.787,0.0
53033.0,STARLINK-4167,PAYLOAD,2023-11-18 18:43:05,15.08835999,0.0001434,53.2177,253.602,88.0692,272.0465,6.4443e-05,7.38e-06,0.0,0 STARLINK-4167,1 53033U 22076AZ  23322.77992192  .00000738  00000-0  64443-4 0  9992,2 53033  53.2177 253.6020 0001434  88.0692 272.0465 15.08835999 76022,6917.893,95.438,540.75,538.766,0.0
53033.0,STARLINK-4167,PAYLOAD,2023-11-19 04:15:23,15.08847149,0.0001465,53.2178,251.8173,92.8535,267.2625,7.4904e-05,9.05e-06,0.0,0 STARLINK-4167,1 53033U 22076AZ  23323.17735477  .00000905  00000-0  74904-4 0  9997,2 53033  53.2178 251.8173 0001465  92.8535 267.2625 15.08847149 76557,6917.859,95.437,540.737,538.71,0.0
53033.0,STARLINK-4167,PAYLOAD,2023-11-19 12:12:19,15.08847136,0.0001455,53.2179,250.3317,87.0938,273.0221,1.2637e-05,-8.7e-07,0.0,0 STARLINK-4167,1 53033U 22076AZ  23323.50855581 -.00000087  00000-0  12637-4 0  9990,2 53033  53.2179 250.3317 0001455  87.0938 273.0221 15.08847136 76131,6917.859,95.437,540.73,538.717,0.0
53033.0,STARLINK-4167,PAYLOAD,2023-11-20 02:30:47,15.08839956,0.0001619,53.2183,247.6559,94.1951,265.9226,8.0652e-05,9.96e-06,0.0,0 STARLINK-4167,1 53033U 22076AZ  23324.10471985  .00000996  00000-0  80652-4 0  9999,2 53033  53.2183 247.6559 0001619  94.1951 265.9226 15.08839956 76696,6917.881,95.438,540.866,538.626,0.0
53033.0,STARLINK-4167,PAYLOAD,2023-11-20 12:03:06,15.08838662,0.0001664,53.2183,245.8726,89.7389,270.3794,7.8473e-05,9.61e-06,0.0,0 STARLINK-4167,1 53033U 22076AZ  23324.50216146  .00000961  00000-0  78473-4 0  9999,2 53033  53.2183 245.8726 0001664  89.7389 270.3794 15.08838662 76285,6917.884,95.438,540.901,538.598,0.0
53033.0,STARLINK-4167,PAYLOAD,2023-11-21 03:56:57,15.08850612,0.0001542,53.2174,242.8957,93.0258,267.0911,7.469e-05,9.01e-06,0.0,0 STARLINK-4167,1 53033U 22076AZ  23325.16455193  .00000901  00000-0  74690-4 0  9990,2 53033  53.2174 242.8957 0001542  93.0258 267.0911 15.08850612 76852,6917.848,95.437,540.78,538.646,0.0
53033.0,STARLINK-4167,PAYLOAD,2023-11-21 05:32:20,15.08851605,0.0001548,53.2175,242.5986,93.1379,266.9791,8.7371e-05,1.103e-05,0.0,0 STARLINK-4167,1 53033U 22076AZ  23325.23079123  .00001103  00000-0  87371-4 0  9998,2 53033  53.2175 242.5986 0001548  93.1379 266.9791 15.08851605 76399,6917.845,95.437,540.781,538.639,0.0
53033.0,STARLINK-4167,PAYLOAD,2023-11-21 18:15:26,15.08835339,0.0001648,53.2184,240.2197,87.5775,272.5406,2.0068e-05,3.1e-07,0.0,0 STARLINK-4167,1 53033U 22076AZ  23325.76072463  .00000031  00000-0  20068-4 0  9995,2 53033  53.2184 240.2197 0001648  87.5775 272.5406 15.08835339 76477,6917.895,95.438,540.9,538.62,0.0
53033.0,STARLINK-4167,PAYLOAD,2023-11-22 00:36:58,15.08843185,0.0001626,53.2167,239.0307,96.3186,263.7991,4.6463e-05,4.52e-06,0.0,0 STARLINK-4167,1 53033U 22076AZ  23326.02567892  .00000452  00000-0  46463-4 0  9994,2 53033  53.2167 239.0307 0001626  96.3186 263.7991 15.08843185 76982,6917.871,95.437,540.86,538.611,0.0
53033.0,STARLINK-4167,PAYLOAD,2023-11-23 00:27:44,15.08857782,0.000151,53.2164,234.5704,96.6637,263.4527,0.00011268,1.507e-05,0.0,0 STARLINK-4167,1 53033U 22076AZ  23327.01926568  .00001507  00000-0  11268-3 0  9999,2 53033  53.2164 234.5704 0001510  96.6637 263.4527 15.08857782 77134,6917.826,95.436,540.736,538.646,0.0
53033.0,STARLINK-4167,PAYLOAD,2023-11-23 22:43:10,15.08832843,0.0001682,53.2159,230.4059,111.0014,249.1158,-3.3737e-05,-8.25e-06,0.0,0 STARLINK-4167,1 53033U 22076AZ  23327.94664379 -.00000825  00000-0 -33737-4 0  9990,2 53033  53.2159 230.4059 0001682 111.0014 249.1158 15.08832843 76802,6917.902,95.438,540.931,538.604,0.0
53033.0,STARLINK-4167,PAYLOAD,2023-11-24 03:29:19,15.08830202,0.0001501,53.2157,229.5137,101.382,258.7341,-7.5466e-05,-1.488e-05,0.0,0 STARLINK-4167,1 53033U 22076AZ  23328.14536642 -.00001488  00000-0 -75466-4 0  9995,2 53033  53.2157 229.5137 0001501 101.3820 258.7341 15.08830202 77306,6917.91,95.438,540.814,538.737,0.0
53033.0,STARLINK-4167,PAYLOAD,2023-11-24 22:33:57,15.08845155,0.0001518,53.2164,225.9468,92.0205,268.0961,-4.0671e-05,-9.35e-06,0.0,0 STARLINK-4167,1 53033U 22076AZ  23328.94024388 -.00000935  00000-0 -40671-4 0  9998,2 53033  53.2164 225.9468 0001518  92.0205 268.0961 15.08845155 76957,6917.865,95.437,540.78,538.68,0.0
53033.0,STARLINK-4167,PAYLOAD,2023-11-25 03:20:06,15.08849082,0.0001585,53.2159,225.052,95.2462,264.8711,0.00025124,3.714e-05,0.0,0 STARLINK-4167,1 53033U 22076AZ  23329.13896348  .00003714  00000-0  25124-3 0  9994,2 53033  53.2159 225.0520 0001585  95.2462 264.8711 15.08849082 77451,6917.853,95.437,540.814,538.621,0.0
53033.0,STARLINK-4167,PAYLOAD,2023-11-25 22:24:43,15.08860409,0.0001808,53.2168,221.4821,105.8631,254.2561,0.00059385,9.181e-05,0.0,0 STARLINK-4167,1 53033U 22076AZ  23329.93384044  .00009181  00000-0  59385-3 0  9997,2 53033  53.2168 221.4821 0001808 105.8631 254.2561 15.08860409 77103,6917.818,95.436,540.934,538.432,0.0
53033.0,STARLINK-4167,PAYLOAD,2023-11-26 22:15:31,15.08831511,0.0001555,53.2156,217.0219,99.3809,260.7359,-0.00027615,-4.679e-05,0.0,0 STARLINK-4167,1 53033U 22076AZ  23330.92744611 -.00004679  00000-0 -27615-3 0  9998,2 53033  53.2156 217.0219 0001555  99.3809 260.7359 15.08831511 77250,6917.906,95.438,540.847,538.696,0.0
53033.0,STARLINK-4167,PAYLOAD,2023-11-27 01:26:17,15.08827359,0.0001508,53.216,216.4286,87.8326,272.2838,-0.00029692,-5.009e-05,0.0,0 STARLINK-4167,1 53033U 22076AZ  23331.05992871 -.00005009  00000-0 -29692-3 0  9991,2 53033  53.2160 216.4286 0001508  87.8326 272.2838 15.08827359 77745,6917.919,95.438,540.827,538.741,0.0
53033.0,STARLINK-4167,PAYLOAD,2023-11-27 22:06:18,15.08847639,0.0001477,53.2147,212.5662,113.7115,246.4032,0.00017727,2.535e-05,0.0,0 STARLINK-4167,1 53033U 22076AZ  23331.92104359  .00002535  00000-0  17727-3 0  9998,2 53033  53.2147 212.5662 0001477 113.7115 246.4032 15.08847639 77400,6917.857,95.437,540.744,538.7,0.0
53033.0,STARLINK-4167,PAYLOAD,2023-11-28 01:17:04,15.08846348,0.0001475,53.2151,211.9686,98.1412,261.9747,0.00026397,3.916e-05,0.0,0 STARLINK-4167,1 53033U 22076AZ  23332.05352587  .00003916  00000-0  26397-3 0  9998,2 53033  53.2151 211.9686 0001475  98.1412 261.9747 15.08846348 77892,6917.861,95.437,540.746,538.706,0.0
53033.0,STARLINK-4167,PAYLOAD,2023-11-28 20:21:42,15.08840976,0.0001395,53.2148,208.4024,77.7218,282.3931,0.00030614,4.588e-05,0.0,0 STARLINK-4167,1 53033U 22076AZ  23332.84841230  .00004588  00000-0  30614-3 0  9996,2 53033  53.2148 208.4024 0001395  77.7218 282.3931 15.08840976 78011,6917.877,95.437,540.707,538.777,0.0
53033.0,STARLINK-4167,PAYLOAD,2023-11-28 21:57:05,15.08842164,0.0001414,53.2151,208.1056,83.2956,276.8197,0.00040101,6.1e-05,0.0,0 STARLINK-4167,1 53033U 22076AZ  23332.91465235  .00006100  00000-0  40101-3 0  9995,2 53033  53.2151 208.1056 0001414  83.2956 276.8197 15.08842164 77551,6917.874,95.437,540.717,538.761,0.0
53033.0,STARLINK-4167,PAYLOAD,2023-11-28 23:32:29,15.08846082,0.0001656,53.2152,207.8094,65.8933,294.2232,0.00037119,5.625e-05,0.0,0 STARLINK-4167,1 53033U 22076AZ  23332.98089123  .00005625  00000-0  37119-3 0  9996,2 53033  53.2152 207.8094 0001656  65.8933 294.2232 15.08846082 77567,6917.862,95.437,540.872,538.581,0.0
